full_name,a,e,i,om,w,ma,H,epoch_cal,epoch_mjd
"       (2016 QZ1)",1.277733251018337,.4604912149310808,8.087107819859398,317.3944835764413,113.5092193658629,259.051646566741,22.8,20190427.0000000,58600
"       (2016 QZ10)",2.146652972938757,.4043728751138265,3.068701546771949,357.6562018942988,336.638861158403,305.8609101972575,23.1,20190427.0000000,58600
"       (2016 QZ44)",1.736573337779465,.3365069917656458,10.30946898420989,319.2252796859146,344.4352971799325,74.16239029391228,23.9,20190427.0000000,58600
"       (2016 QZ83)",1.952414274507252,.3664921910514238,4.634682484723002,282.5333635666043,134.3672637251587,306.3139776273126,20.8,20190427.0000000,58600
"       (2016 RA1)",2.644153405714524,.5906171239613539,15.62107136748039,164.1031153402307,171.7635826485799,1.634425598676739,24.9,20160906.0000000,57637
"       (2016 RA18)",2.27027887265031,.495625438274459,6.709706628332629,190.8214307417818,162.606665013297,275.5079395081351,23.1,20190427.0000000,58600
"       (2016 RA20)",2.658824587333506,.7061428959271761,9.067314059844717,107.5111623662923,159.7048363905044,13.63594816547899,23.0,20160908.0000000,57639
"       (2016 RA34)",.9415503946857943,.307901594687288,3.637825272866576,358.3725467463741,220.0794600079034,51.85057027651357,24.5,20190427.0000000,58600
"       (2016 RA41)",2.589215888746926,.5218498587455972,3.248443865418582,176.1608109977153,197.8239256525845,219.3712004505903,21.8,20190427.0000000,58600
"       (2016 RB1)",.8725705933736407,.2808417462904047,1.799864151557919,345.682401148475,135.4900368143485,332.4849764598977,28.3,20190427.0000000,58600
"       (2016 RB18)",2.493537172637447,.5360446276704961,9.351336189328681,204.6592666777128,147.0620451378195,238.3141770084912,22.0,20190427.0000000,58600
"       (2016 RB20)",2.111127522551678,.5128304496325863,6.921225430539298,54.30441322683691,250.5368103772962,12.96323285132554,24.3,20160908.0000000,57639
"       (2016 RB34)",1.137581409470594,.1093616532528313,9.002533347916735,346.8147679932063,313.3802454129298,98.34805222159837,25.0,20190427.0000000,58600
"       (2016 RB41)",2.438342976640355,.5227823923916278,2.737283234116101,211.7046167895381,160.2741307100896,242.5762071798973,24.1,20190427.0000000,58600
"       (2016 RC18)",2.088491906394162,.503644233942557,2.087484135557231,305.5595985568075,15.65382966227665,7.485902981118355,26.1,20160909.0000000,57640
"       (2016 RC20)",1.671273323563269,.3641869223107337,30.6805696633182,194.218119853114,185.9168588324904,54.76896969138044,20.4,20190427.0000000,58600
"       (2016 RC34)",2.029031524429176,.474787332561607,4.176161978550421,179.140613717791,173.2713438904843,325.7885436186468,26.4,20190427.0000000,58600
"       (2016 RC41)",2.194377053053391,.4403597109569714,5.256087145147673,192.9708374393769,140.6826659126842,296.8947866950163,23.3,20190427.0000000,58600
"       (2016 RD18)",2.578543819691437,.6000086802395364,3.06809069896016,169.2157185428848,158.3310355557585,3.832317652555998,26.5,20160908.0000000,57639
"       (2016 RD20)",2.498204148430164,.5687215374899134,2.214173333447659,164.5646943656991,191.0147557198802,237.3145173928556,24.8,20190427.0000000,58600
"       (2016 RD34)",1.046305380044066,.03472702789915155,1.957904577122459,349.5994933868549,11.02540989558543,151.5481632537377,27.6,20190427.0000000,58600
"       (2016 RE18)",1.914343368356172,.4626285160511324,2.807942992675438,307.3535194197402,54.18158662040049,353.641930638254,23.7,20190427.0000000,58600
"       (2016 RE20)",1.64430571659096,.366590890694333,5.31828557634388,160.9595278147352,248.0041687512742,55.94383940060711,23.2,20190427.0000000,58600
"       (2016 RE34)",1.489045254562011,.3218863691534544,1.562249263996394,169.8747348505018,175.688987512644,160.9987827965195,28.3,20190427.0000000,58600
"       (2016 RF17)",2.109689599604103,.4310976209981811,5.761206194533497,332.6288695683488,332.3984579035142,13.41918748233062,23.5,20160906.0000000,57637
"       (2016 RF20)",1.979246631325494,.4202979128099749,6.125113296303251,149.6257270885147,217.7839852353414,330.4927862116113,23.9,20190427.0000000,58600
"       (2016 RF34)",1.564836705815805,.3654130678392146,10.32461747955865,350.1838129344806,25.10576196925331,110.4325903947443,24.5,20190427.0000000,58600
"       (2016 RF40)",1.280543439293133,.1564365998397959,20.85939807800952,183.0957719474853,248.5990091017306,235.0807898333653,21.6,20190427.0000000,58600
"       (2016 RG17)",.8114292283776677,.5693557768212015,21.98783347919513,170.1221702245848,29.11444986005413,313.7295439967992,23.0,20190427.0000000,58600
"       (2016 RG18)",1.238708146179298,.1760402109261769,21.85521436661712,348.8106496237124,50.88295199834081,286.3640402693284,23.2,20190427.0000000,58600
"       (2016 RG20)",1.022053929569486,.26279774145444,17.16029386459241,160.9381834061769,336.9392490717305,65.240225411572,23.4,20190427.0000000,58600
"       (2016 RG40)",2.73875346837227,.5511801072667188,14.73154264884795,228.9747908892906,203.2133162232614,180.1970402044727,18.8,20190427.0000000,58600
"       (2016 RH17)",1.385170262554144,.3010181980689233,24.23541949121185,167.6956619119713,210.9706117670197,341.3085723282088,23.5,20160907.0000000,57638
"       (2016 RH18)",1.545904240563844,.2629256682081239,8.946136549035748,69.4005262107264,357.8110691743148,79.02193575861227,21.3,20190427.0000000,58600
"       (2016 RH20)",1.631351705285613,.3790412439402746,13.6077671211982,1.468697113629213,274.7622251571328,36.35068394226107,23.4,20160910.0000000,57641
"       (2016 RH40)",1.318631897454386,.267248731379096,15.15620256299238,177.5784857006551,233.3839009221556,325.5217064864832,24.3,20160917.0000000,57648
"       (2016 RJ17)",1.514346102656975,.268560396012629,28.95042939497172,167.7446174478624,208.4557214195888,129.3016033896692,23.5,20190427.0000000,58600
"       (2016 RJ18)",1.814475643925719,.3942079550920989,4.908966338962132,20.67809885529178,312.0970622306701,33.17200149850765,23.5,20190427.0000000,58600
"       (2016 RJ20)",.9250295666329718,.5224364723032918,5.15287272120694,153.3016038686096,55.63465528610507,69.06989349390042,23.6,20190427.0000000,58600
"       (2016 RJ40)",2.093410323082979,.5070737039020995,3.429612267499901,321.4890171130095,6.836864795190849,6.581034997138707,25.2,20160913.0000000,57644
"       (2016 RK17)",2.106439693767196,.5109929265517601,6.887160463358284,166.3379668322718,152.2702521826066,7.251097145276062,25.3,20160907.0000000,57638
"       (2016 RK20)",1.712864816433933,.3404505426058166,8.52444723709552,154.3804990571301,175.4375735674138,71.11913605357137,24.6,20190427.0000000,58600
"       (2016 RK40)",2.23383871876691,.6218827405297704,4.711309809702793,344.7886306387286,305.7296369646596,12.21838103284778,27.7,20160911.0000000,57642
"       (2016 RL17)",.8576300481907775,.3318615227455472,3.182281352622641,166.3881035667391,318.3103366067581,2.306660647295835,26.5,20190427.0000000,58600
"       (2016 RL20)",1.255675494507395,.4010504831979722,19.7896043309784,357.9575218132044,92.70678241006472,257.7978646316143,23.5,20190427.0000000,58600
"       (2016 RL40)",1.218663671303182,.3832496110881371,10.26709382831016,168.8572158010956,87.24301779625353,50.49938359699244,25.6,20160912.0000000,57643
"       (2016 RL41)",2.052240093187989,.4136033736295142,39.9978167961384,353.4830266270225,112.2977044230811,321.4117640164297,18.3,20160905.0000000,57636
"       (2016 RM17)",1.288670488133018,.2380677634998055,6.556046637087945,341.7913940067787,320.6258922565246,314.0744573949318,27.6,20190427.0000000,58600
"       (2016 RM20)",1.162805656487195,.1600196029095067,9.310192808333071,174.7152897350484,227.861747864437,352.4738436572541,26.2,20190427.0000000,58600
"       (2016 RM40)",2.435410367624283,.7616825230445291,.9645419054625249,297.0046967184811,319.6165223567007,13.23684614511537,24.7,20160914.0000000,57645
"       (2016 RM41)",2.992051723261921,.6475174044271589,.7372632725286768,246.4636871790596,90.12465353597312,2.03376707800618,25.3,20160911.0000000,57642
"       (2016 RN1)",1.310282601872767,.2751502619624225,25.28603452774824,188.6244513872643,20.48185774958268,14.4475323474876,21.1,20190427.0000000,58600
"       (2016 RN17)",1.213397850209554,.2262406843325882,37.89409270108647,342.0759190756825,75.25823666890203,309.5457055855898,23.2,20160907.0000000,57638
"       (2016 RN20)",1.075149004712333,.07320550420052274,5.359926849726707,345.2168762393662,42.11679235046624,93.42405386060649,28.2,20190427.0000000,58600
"       (2016 RN40)",2.953348627619123,.5941769250190029,6.07065621418057,61.75520759150118,264.8126106450018,191.4210764297432,19.9,20190427.0000000,58600
"       (2016 RN41)",1.013701678339651,.3161667593070364,9.575714848385301,169.0289905952141,287.2675966032165,288.7787407473666,31.028,20160911.0000000,57642
"       (2016 RO17)",2.05541976015008,.6318367492491426,6.67464365942197,167.7230620062884,246.5024329000659,305.8820869921353,26.3,20190427.0000000,58600
"       (2016 RO20)",2.325671715982965,.6591749370495207,2.101520157482636,342.9575290875594,69.63167680328216,253.6507193316152,27.2,20190427.0000000,58600
"       (2016 RO40)",2.294427031342603,.6487601891707837,3.828712952065525,4.970983993748214,284.1830277360296,12.29746667984149,24.5,20160913.0000000,57644
"       (2016 RP1)",1.585547348713079,.197959431520407,14.31364672965111,325.1211507845467,71.03340529149186,92.11611994368685,20.7,20190427.0000000,58600
"       (2016 RP17)",2.333324923548688,.7092033262715712,3.260895686438618,355.4631599901139,266.9960960275501,16.15427684953004,24.5,20160915.0000000,57646
"       (2016 RP20)",1.972679918559912,.5055000180251069,8.177869023177456,172.1633843784809,209.4774792064029,349.9105173189168,25.6,20160909.0000000,57640
"       (2016 RP33)",3.331546149829092,.6345921990825146,23.0515877225704,357.7564646890499,350.5008134627849,155.283391839627,19.5,20190427.0000000,58600
